ONEWEB-0283             
1 49001U 21060AL  25173.61973432 -.00000030  00000+0 -11253-3 0  9995
2 49001  87.9042 300.4555 0002023 105.8831 254.2523 13.16594048192300
ONEWEB-0284             
1 49002U 21060AM  25173.61339359 -.00000004  00000+0 -44232-4 0  9995
2 49002  87.9057 300.4253 0002088  92.3193 267.8177 13.16593420192289
ONEWEB-0285             
1 49075U 21075A   25174.44068721  .00000349  00000+0  93580-3 0  9994
2 49075  87.8877  62.0106 0001925  77.4784 282.6560 13.12442796189131
ONEWEB-0286             
1 49076U 21075B   25173.43148357  .00000087  00000+0  20613-3 0  9993
2 49076  87.8901  62.2315 0001727  73.9738 286.1581 13.12444605187371
ONEWEB-0287             
1 49077U 21075C   25173.45700866 -.00000012  00000+0 -64539-4 0  9991
2 49077  87.9068  77.4785 0001872  65.9050 294.2277 13.17649049187225
ONEWEB-0288             
1 49078U 21075D   25174.39836006 -.00000207  00000+0 -61180-3 0  9996
2 49078  87.8875  62.0127 0001924  74.3115 285.8225 13.12442331189114
ONEWEB-0289             
1 49079U 21075E   25174.47287281  .00000053  00000+0  10225-3 0  9992
2 49079  87.9067  77.3076 0002382  75.6791 284.4604 13.17648148187937
ONEWEB-0290             
1 49080U 21075F   25173.69664393  .00000028  00000+0  40151-4 0  9994
2 49080  87.9068  77.4179 0002550  81.8794 278.2627 13.17648669186274
